INMARSAT 3-F5           
1 25153U 98006B   26091.15230370 -.00000296  00000+0  00000+0 0  9994
2 25153   9.5233  54.0106 0005290 317.6245 178.7151  1.00273777103121
ORBCOMM FM04            
1 25159U 98007C   26091.05210141  .00001276  00000+0  48418-3 0  9991
2 25159 107.9605  10.7041 0038464 101.5743 258.9719 14.35579131465523
CELESTIS-02 & TAURUS R/B
1 25160U 98007D   26091.17494286  .00000044  00000+0  76532-4 0  9991
2 25160 108.0038 176.8475 0063778 264.6239 152.1713 14.22460205459562
TECHSAT 1B (GO-32)      
1 25397U 98043D   26091.21814126  .00000084  00000+0  56469-4 0  9998
2 25397  99.0050  82.0465 0002341  83.3448 276.7996 14.24412168440373
WESTPAC                 
1 25398U 98043E   26091.20681279 -.00000014  00000+0  14391-4 0  9991
2 25398  99.0097  75.4507 0002355  79.6832 280.4611 14.23048780439994
ORBCOMM FM19            
1 25415U 98046C   26090.92387552  .00001594  00000+0  55366-3 0  9998
2 25415  44.9933 250.7763 0003110 266.3470 262.2380 14.39331840445646
ORBCOMM FM20            
1 25416U 98046D   26091.17557772  .00001015  00000+0  37937-3 0  9992
2 25416  44.9936 256.6651 0000646 226.6436 133.4358 14.37942797445701
ORBCOMM FM27            
1 25481U 98053G   26091.05954564  .00001341  00000+0  47637-3 0  9999
2 25481  45.0068 341.6412 0000918 326.6601  33.4190 14.38988771439123
SCD 2                   
1 25504U 98060A   26090.99863840  .00000501  00000+0  88993-4 0  9999
2 25504  24.9942 188.1702 0016918  28.0909 132.9763 14.45494727449148
ISS (ZARYA)             
1 25544U 98067A   26091.10102623  .00008862  00000+0  17059-3 0  9991
2 25544  51.6334 321.5639 0006224 257.9417 102.0874 15.48690056559805
SWAS                    
1 25560U 98071A   26091.20578087  .00004241  00000+0  27365-3 0  9994
2 25560  69.8956  65.9555 0005870 337.8707  22.2202 15.09053105485650
ISS (UNITY)             
1 25575U 98069F   26091.10102623  .00008862  00000+0  17059-3 0  9997
2 25575  51.6334 321.5639 0006224 257.9417 102.0874 15.48690056559494
DLR-TUBSAT              
1 25757U 99029B   26091.20458388  .00000171  00000+0  53775-4 0  9990
2 25757  98.6683  84.1845 0013405 220.8321 139.1870 14.52405902422075
CXO                     
1 25867U 99040B   26092.68652473  .00000738  00000+0  00000+0 0  9996
2 25867  54.9638 118.8603 7957023 310.6798   0.0859  0.37810289 17041
ABS-6                   
1 25924U 99053A   26091.14153316 -.00000130  00000+0  00000+0 0  9993
2 25924   0.0389  99.0352 0002922 287.5011  12.9030  1.00271862 97065
NAVSTAR 46 (USA 145)    
1 25933U 99055A   26090.80449374 -.00000056  00000+0  00000+0 0  9996
2 25933  51.5335 298.8524 0106386 172.4191  34.4947  2.00566313194026
UFO 10 (USA 146)        
1 25967U 99063A   26091.10322615 -.00000196  00000+0  00000+0 0  9999
2 25967   9.8451  27.6137 0004482 319.3792 216.6453  1.00268159 96572
