[{"OBJECT_NAME":"INMARSAT 3-F5","OBJECT_ID":"1998-006B","EPOCH":"2026-04-01T03:39:19.039680","MEAN_MOTION":1.00273777,"ECCENTRICITY":0.000529,"INCLINATION":9.5233,"RA_OF_ASC_NODE":54.0106,"ARG_OF_PERICENTER":317.6245,"MEAN_ANOMALY":178.7151,"EPHEMERIS_TYPE":0,"CLASSIFICATION_TYPE":"U","NORAD_CAT_ID":25153,"ELEMENT_SET_NO":999,"REV_AT_EPOCH":10312,"BSTAR":0,"MEAN_MOTION_DOT":-2.96e-6,"MEAN_MOTION_DDOT":0},{"OBJECT_NAME":"ORBCOMM FM04","OBJECT_ID":"1998-007C","EPOCH":"2026-04-01T01:15:01.561824","MEAN_MOTION":14.35579131,"ECCENTRICITY":0.0038464,"INCLINATION":107.9605,"RA_OF_ASC_NODE":10.7041,"ARG_OF_PERICENTER":101.5743,"MEAN_ANOMALY":258.9719,"EPHEMERIS_TYPE":0,"CLASSIFICATION_TYPE":"U","NORAD_CAT_ID":25159,"ELEMENT_SET_NO":999,"REV_AT_EPOCH":46552,"BSTAR":0.00048418,"MEAN_MOTION_DOT":1.276e-5,"MEAN_MOTION_DDOT":0},{"OBJECT_NAME":"CELESTIS-02 & TAURUS R/B","OBJECT_ID":"1998-007D","EPOCH":"2026-04-01T04:11:55.063104","MEAN_MOTION":14.22460205,"ECCENTRICITY":0.0063778,"INCLINATION":108.0038,"RA_OF_ASC_NODE":176.8475,"ARG_OF_PERICENTER":264.6239,"MEAN_ANOMALY":152.1713,"EPHEMERIS_TYPE":0,"CLASSIFICATION_TYPE":"U","NORAD_CAT_ID":25160,"ELEMENT_SET_NO":999,"REV_AT_EPOCH":45956,"BSTAR":7.6532e-5,"MEAN_MOTION_DOT":4.4e-7,"MEAN_MOTION_DDOT":0},{"OBJECT_NAME":"TECHSAT 1B (GO-32)","OBJECT_ID":"1998-043D","EPOCH":"2026-04-01T05:14:07.404864","MEAN_MOTION":14.24412168,"ECCENTRICITY":0.0002341,"INCLINATION":99.005,"RA_OF_ASC_NODE":82.0465,"ARG_OF_PERICENTER":83.3448,"MEAN_ANOMALY":276.7996,"EPHEMERIS_TYPE":0,"CLASSIFICATION_TYPE":"U","NORAD_CAT_ID":25397,"ELEMENT_SET_NO":999,"REV_AT_EPOCH":44037,"BSTAR":5.6469e-5,"MEAN_MOTION_DOT":8.4e-7,"MEAN_MOTION_DDOT":0},{"OBJECT_NAME":"WESTPAC","OBJECT_ID":"1998-043E","EPOCH":"2026-04-01T04:57:48.625056","MEAN_MOTION":14.2304878,"ECCENTRICITY":0.0002355,"INCLINATION":99.0097,"RA_OF_ASC_NODE":75.4507,"ARG_OF_PERICENTER":79.6832,"MEAN_ANOMALY":280.4611,"EPHEMERIS_TYPE":0,"CLASSIFICATION_TYPE":"U","NORAD_CAT_ID":25398,"ELEMENT_SET_NO":999,"REV_AT_EPOCH":43999,"BSTAR":1.4391e-5,"MEAN_MOTION_DOT":-1.4e-7,"MEAN_MOTION_DDOT":0},{"OBJECT_NAME":"ORBCOMM FM19","OBJECT_ID":"1998-046C","EPOCH":"2026-03-31T22:10:22.844928","MEAN_MOTION":14.3933184,"ECCENTRICITY":0.000311,"INCLINATION":44.9933,"RA_OF_ASC_NODE":250.7763,"ARG_OF_PERICENTER":266.347,"MEAN_ANOMALY":262.238,"EPHEMERIS_TYPE":0,"CLASSIFICATION_TYPE":"U","NORAD_CAT_ID":25415,"ELEMENT_SET_NO":999,"REV_AT_EPOCH":44564,"BSTAR":0.00055366,"MEAN_MOTION_DOT":1.594e-5,"MEAN_MOTION_DDOT":0},{"OBJECT_NAME":"ORBCOMM FM20","OBJECT_ID":"1998-046D","EPOCH":"2026-04-01T04:12:49.915008","MEAN_MOTION":14.37942797,"ECCENTRICITY":6.46e-5,"INCLINATION":44.9936,"RA_OF_ASC_NODE":256.6651,"ARG_OF_PERICENTER":226.6436,"MEAN_ANOMALY":133.4358,"EPHEMERIS_TYPE":0,"CLASSIFICATION_TYPE":"U","NORAD_CAT_ID":25416,"ELEMENT_SET_NO":999,"REV_AT_EPOCH":44570,"BSTAR":0.00037937,"MEAN_MOTION_DOT":1.015e-5,"MEAN_MOTION_DDOT":0},{"OBJECT_NAME":"ORBCOMM FM27","OBJECT_ID":"1998-053G","EPOCH":"2026-04-01T01:25:44.743296","MEAN_MOTION":14.38988771,"ECCENTRICITY":9.18e-5,"INCLINATION":45.0068,"RA_OF_ASC_NODE":341.6412,"ARG_OF_PERICENTER":326.6601,"MEAN_ANOMALY":33.419,"EPHEMERIS_TYPE":0,"CLASSIFICATION_TYPE":"U","NORAD_CAT_ID":25481,"ELEMENT_SET_NO":999,"REV_AT_EPOCH":43912,"BSTAR":0.00047637,"MEAN_MOTION_DOT":1.341e-5,"MEAN_MOTION_DDOT":0},{"OBJECT_NAME":"SCD 2","OBJECT_ID":"1998-060A","EPOCH":"2026-03-31T23:58:02.357760","MEAN_MOTION":14.45494727,"ECCENTRICITY":0.0016918,"INCLINATION":24.9942,"RA_OF_ASC_NODE":188.1702,"ARG_OF_PERICENTER":28.0909,"MEAN_ANOMALY":132.9763,"EPHEMERIS_TYPE":0,"CLASSIFICATION_TYPE":"U","NORAD_CAT_ID":25504,"ELEMENT_SET_NO":999,"REV_AT_EPOCH":44914,"BSTAR":8.8993e-5,"MEAN_MOTION_DOT":5.01e-6,"MEAN_MOTION_DDOT":0},{"OBJECT_NAME":"ISS (ZARYA)","OBJECT_ID":"1998-067A","EPOCH":"2026-04-01T02:25:28.666272","MEAN_MOTION":15.48690056,"ECCENTRICITY":0.0006224,"INCLINATION":51.6334,"RA_OF_ASC_NODE":321.5639,"ARG_OF_PERICENTER":257.9417,"MEAN_ANOMALY":102.0874,"EPHEMERIS_TYPE":0,"CLASSIFICATION_TYPE":"U","NORAD_CAT_ID":25544,"ELEMENT_SET_NO":999,"REV_AT_EPOCH":55980,"BSTAR":0.00017059,"MEAN_MOTION_DOT":8.862e-5,"MEAN_MOTION_DDOT":0},{"OBJECT_NAME":"SWAS","OBJECT_ID":"1998-071A","EPOCH":"2026-04-01T04:56:19.467168","MEAN_MOTION":15.09053105,"ECCENTRICITY":0.000587,"INCLINATION":69.8956,"RA_OF_ASC_NODE":65.9555,"ARG_OF_PERICENTER":337.8707,"MEAN_ANOMALY":22.2202,"EPHEMERIS_TYPE":0,"CLASSIFICATION_TYPE":"U","NORAD_CAT_ID":25560,"ELEMENT_SET_NO":999,"REV_AT_EPOCH":48565,"BSTAR":0.00027365,"MEAN_MOTION_DOT":4.241e-5,"MEAN_MOTION_DDOT":0},{"OBJECT_NAME":"ISS (UNITY)","OBJECT_ID":"1998-069F","EPOCH":"2026-04-01T02:25:28.666272","MEAN_MOTION":15.48690056,"ECCENTRICITY":0.0006224,"INCLINATION":51.6334,"RA_OF_ASC_NODE":321.5639,"ARG_OF_PERICENTER":257.9417,"MEAN_ANOMALY":102.0874,"EPHEMERIS_TYPE":0,"CLASSIFICATION_TYPE":"U","NORAD_CAT_ID":25575,"ELEMENT_SET_NO":999,"REV_AT_EPOCH":55949,"BSTAR":0.00017059,"MEAN_MOTION_DOT":8.862e-5,"MEAN_MOTION_DDOT":0},{"OBJECT_NAME":"DLR-TUBSAT","OBJECT_ID":"1999-029B","EPOCH":"2026-04-01T04:54:36.047232","MEAN_MOTION":14.52405902,"ECCENTRICITY":0.0013405,"INCLINATION":98.6683,"RA_OF_ASC_NODE":84.1845,"ARG_OF_PERICENTER":220.8321,"MEAN_ANOMALY":139.187,"EPHEMERIS_TYPE":0,"CLASSIFICATION_TYPE":"U","NORAD_CAT_ID":25757,"ELEMENT_SET_NO":999,"REV_AT_EPOCH":42207,"BSTAR":5.3775e-5,"MEAN_MOTION_DOT":1.71e-6,"MEAN_MOTION_DDOT":0},{"OBJECT_NAME":"CXO","OBJECT_ID":"1999-040B","EPOCH":"2026-04-02T16:28:35.736672","MEAN_MOTION":0.37810289,"ECCENTRICITY":0.7957023,"INCLINATION":54.9638,"RA_OF_ASC_NODE":118.8603,"ARG_OF_PERICENTER":310.6798,"MEAN_ANOMALY":0.0859,"EPHEMERIS_TYPE":0,"CLASSIFICATION_TYPE":"U","NORAD_CAT_ID":25867,"ELEMENT_SET_NO":999,"REV_AT_EPOCH":1704,"BSTAR":0,"MEAN_MOTION_DOT":7.38e-6,"MEAN_MOTION_DDOT":0},{"OBJECT_NAME":"ABS-6","OBJECT_ID":"1999-053A","EPOCH":"2026-04-01T03:23:48.465024","MEAN_MOTION":1.00271862,"ECCENTRICITY":0.0002922,"INCLINATION":0.0389,"RA_OF_ASC_NODE":99.0352,"ARG_OF_PERICENTER":287.5011,"MEAN_ANOMALY":12.903,"EPHEMERIS_TYPE":0,"CLASSIFICATION_TYPE":"U","NORAD_CAT_ID":25924,"ELEMENT_SET_NO":999,"REV_AT_EPOCH":9706,"BSTAR":0,"MEAN_MOTION_DOT":-1.3e-6,"MEAN_MOTION_DDOT":0},{"OBJECT_NAME":"NAVSTAR 46 (USA 145)","OBJECT_ID":"1999-055A","EPOCH":"2026-03-31T19:18:28.258272","MEAN_MOTION":2.00566313,"ECCENTRICITY":0.0106387,"INCLINATION":51.5335,"RA_OF_ASC_NODE":298.8524,"ARG_OF_PERICENTER":172.4191,"MEAN_ANOMALY":34.4947,"EPHEMERIS_TYPE":0,"CLASSIFICATION_TYPE":"U","NORAD_CAT_ID":25933,"ELEMENT_SET_NO":999,"REV_AT_EPOCH":19402,"BSTAR":0,"MEAN_MOTION_DOT":-5.6e-7,"MEAN_MOTION_DDOT":0},{"OBJECT_NAME":"UFO 10 (USA 146)","OBJECT_ID":"1999-063A","EPOCH":"2026-04-01T02:28:38.739360","MEAN_MOTION":1.00268159,"ECCENTRICITY":0.0004482,"INCLINATION":9.8451,"RA_OF_ASC_NODE":27.6137,"ARG_OF_PERICENTER":319.3792,"MEAN_ANOMALY":216.6453,"EPHEMERIS_TYPE":0,"CLASSIFICATION_TYPE":"U","NORAD_CAT_ID":25967,"ELEMENT_SET_NO":999,"REV_AT_EPOCH":9657,"BSTAR":0,"MEAN_MOTION_DOT":-1.96e-6,"MEAN_MOTION_DDOT":0}